[{"OBJECT_NAME":"1998-067XK","OBJECT_ID":"1998-067XK","EPOCH":"2025-09-26T18:51:42.581664","MEAN_MOTION":15.52239218,"ECCENTRICITY":5.792e-5,"INCLINATION":51.6323,"RA_OF_ASC_NODE":163.4159,"ARG_OF_PERICENTER":139.705,"MEAN_ANOMALY":220.3983,"EPHEMERIS_TYPE":0,"CLASSIFICATION_TYPE":"U","NORAD_CAT_ID":65731,"ELEMENT_SET_NO":999,"REV_AT_EPOCH":114,"BSTAR":0.0010804885,"MEAN_MOTION_DOT":0.00066889,"MEAN_MOTION_DDOT":0},{"OBJECT_NAME":"RSP-03","OBJECT_ID":"1998-067XL","EPOCH":"2025-09-27T04:07:42.040704","MEAN_MOTION":15.52406109,"ECCENTRICITY":5.836e-5,"INCLINATION":51.633,"RA_OF_ASC_NODE":161.4931,"ARG_OF_PERICENTER":152.4185,"MEAN_ANOMALY":207.6836,"EPHEMERIS_TYPE":0,"CLASSIFICATION_TYPE":"U","NORAD_CAT_ID":65732,"ELEMENT_SET_NO":999,"REV_AT_EPOCH":121,"BSTAR":0.0012631652,"MEAN_MOTION_DOT":0.00078871,"MEAN_MOTION_DDOT":0},{"OBJECT_NAME":"1998-067XM","OBJECT_ID":"1998-067XM","EPOCH":"2025-09-27T04:06:59.291712","MEAN_MOTION":15.52603878,"ECCENTRICITY":0.00039437,"INCLINATION":51.6329,"RA_OF_ASC_NODE":161.4901,"ARG_OF_PERICENTER":77.239,"MEAN_ANOMALY":282.9041,"EPHEMERIS_TYPE":0,"CLASSIFICATION_TYPE":"U","NORAD_CAT_ID":65733,"ELEMENT_SET_NO":999,"REV_AT_EPOCH":121,"BSTAR":0.0014933284,"MEAN_MOTION_DOT":0.00094201,"MEAN_MOTION_DDOT":0}]
