1998-067XK              
1 65731U 98067XK  25269.78590951  .00066889  00000+0  10805-2 0  9992
2 65731  51.6323 163.4159 0000579 139.7050 220.3983 15.52239218  1140
RSP-03                  
1 65732U 98067XL  25270.17201436  .00078871  00000+0  12632-2 0  9999
2 65732  51.6330 161.4931 0000583 152.4185 207.6836 15.52406109  1219
1998-067XM              
1 65733U 98067XM  25270.17151958  .00094201  00000+0  14933-2 0  9994
2 65733  51.6329 161.4901 0003943  77.2390 282.9041 15.52603878  1216
